[Satellite]
VERSION=1.1
NAME=OPS 8180 (RADCAT)
NICKNAME=OPS 8180 (RADCAT)
TLE1=1 06212U 72076A   11059.31107791  .00006554  00000-0  20359-3 0  2320
TLE2=2 06212  98.5457 172.8431 0003058  23.4323 336.7058 15.33792220217893
